[{"OBJECT_NAME":"LEMUR-2-PETERG","OBJECT_ID":"2017-042S","EPOCH":"2026-03-09T11:34:35.656032","MEAN_MOTION":15.29611459,"ECCENTRICITY":0.00037,"INCLINATION":97.398,"RA_OF_ASC_NODE":253.6596,"ARG_OF_PERICENTER":341.6938,"MEAN_ANOMALY":18.4169,"EPHEMERIS_TYPE":0,"CLASSIFICATION_TYPE":"U","NORAD_CAT_ID":42841,"ELEMENT_SET_NO":999,"REV_AT_EPOCH":47317,"BSTAR":0.00081076471,"MEAN_MOTION_DOT":0.0002324,"MEAN_MOTION_DDOT":0},{"OBJECT_NAME":"STARLINK-34552","OBJECT_ID":"2025-144H","EPOCH":"2026-03-09T14:48:10.593792","MEAN_MOTION":15.30186444,"ECCENTRICITY":0.0001213,"INCLINATION":53.1592,"RA_OF_ASC_NODE":181.1704,"ARG_OF_PERICENTER":73.7979,"MEAN_ANOMALY":286.3155,"EPHEMERIS_TYPE":0,"CLASSIFICATION_TYPE":"U","NORAD_CAT_ID":64731,"ELEMENT_SET_NO":999,"REV_AT_EPOCH":3970,"BSTAR":0.0012103,"MEAN_MOTION_DOT":0.00035644,"MEAN_MOTION_DDOT":0}]
