LEMUR-2-PETERG          
1 42841U 17042S   26068.48235713  .00023240  00000+0  81076-3 0  9993
2 42841  97.3980 253.6596 0003700 341.6938  18.4169 15.29611459473171
STARLINK-34552          
1 64731U 25144H   26068.61678928  .00035644  00000+0  12103-2 0  9996
2 64731  53.1592 181.1704 0001213  73.7979 286.3155 15.30186444 39704
